IRIDIUM 159             
1 43578U 18061K   23239.72530937  .00000270  00000+0  89369-4 0  9995
2 43578  86.3973 124.9034 0002070  86.6167 273.5266 14.34217716266541
IRIDIUM 180             
1 43922U 19002A   23239.86434060  .00000119  00000+0  35291-4 0  9996
2 43922  86.3927  61.6806 0001937  88.6444 271.4974 14.34216798242173
IRIDIUM 176             
1 43923U 19002B   23239.88565310  .00000431  00000+0  64512-4 0  9997
2 43923  86.6057  61.7072 0002381  89.3212 270.8277 14.72255616248542
IRIDIUM 168             
1 43924U 19002C   23239.92777937  .00000113  00000+0  33239-4 0  9992
2 43924  86.3929  61.7025 0002028  89.9327 270.2101 14.34218496242162
IRIDIUM 173             
1 43925U 19002D   23239.63601613  .00000111  00000+0  32725-4 0  9995
2 43925  86.3924  61.7552 0002061  92.1532 267.9900 14.34215871242102
IRIDIUM 169             
1 43926U 19002E   23239.62625249  .00000375  00000+0  11616-3 0  9993
2 43926  86.4179  93.3989 0005288 107.0196 253.1582 14.38615315242921
IRIDIUM 172             
1 43927U 19002F   23239.90872148  .00000304  00000+0  10136-3 0  9995
2 43927  86.3925  61.6460 0002091  86.5187 273.6248 14.34233234242155
IRIDIUM 175             
1 43928U 19002G   23239.87944199 -.00000378  00000+0 -63932-4 0  9994
2 43928  86.1485  51.4814 0001965  91.1203 269.0239 14.72243931248539
